[{"OBJECT_NAME":"INMARSAT 4-F2 (SOUTHPAN/PRN 122)","OBJECT_ID":"2005-044A","EPOCH":"2026-03-04T16:43:38.679744","MEAN_MOTION":1.00271361,"ECCENTRICITY":0.0002663,"INCLINATION":4.9581,"RA_OF_ASC_NODE":43.8057,"ARG_OF_PERICENTER":320.1178,"MEAN_ANOMALY":192.9236,"EPHEMERIS_TYPE":0,"CLASSIFICATION_TYPE":"U","NORAD_CAT_ID":28899,"ELEMENT_SET_NO":999,"REV_AT_EPOCH":7447,"BSTAR":0,"MEAN_MOTION_DOT":-2.69e-6,"MEAN_MOTION_DDOT":0},{"OBJECT_NAME":"GSAT-8 (GAGAN/PRN 127)","OBJECT_ID":"2011-022A","EPOCH":"2026-03-04T04:34:38.601984","MEAN_MOTION":1.00272189,"ECCENTRICITY":0.00073721,"INCLINATION":1.8598,"RA_OF_ASC_NODE":83.1608,"ARG_OF_PERICENTER":214.9335,"MEAN_ANOMALY":347.5527,"EPHEMERIS_TYPE":0,"CLASSIFICATION_TYPE":"U","NORAD_CAT_ID":37605,"ELEMENT_SET_NO":999,"REV_AT_EPOCH":5216,"BSTAR":0,"MEAN_MOTION_DOT":7.3e-7,"MEAN_MOTION_DDOT":0},{"OBJECT_NAME":"LUCH 5A (SDCM/PRN 140)","OBJECT_ID":"2011-074B","EPOCH":"2026-03-03T20:00:16.974720","MEAN_MOTION":1.00275356,"ECCENTRICITY":0.00040051,"INCLINATION":8.4858,"RA_OF_ASC_NODE":75.3546,"ARG_OF_PERICENTER":243.8626,"MEAN_ANOMALY":309.5287,"EPHEMERIS_TYPE":0,"CLASSIFICATION_TYPE":"U","NORAD_CAT_ID":37951,"ELEMENT_SET_NO":999,"REV_AT_EPOCH":5199,"BSTAR":0,"MEAN_MOTION_DOT":-5.7e-7,"MEAN_MOTION_DDOT":0},{"OBJECT_NAME":"SES-5 (EGNOS/PRN 136)","OBJECT_ID":"2012-036A","EPOCH":"2026-03-04T09:02:38.798880","MEAN_MOTION":1.00272007,"ECCENTRICITY":0.00020137,"INCLINATION":0.0601,"RA_OF_ASC_NODE":311.183,"ARG_OF_PERICENTER":27.7089,"MEAN_ANOMALY":323.8631,"EPHEMERIS_TYPE":0,"CLASSIFICATION_TYPE":"U","NORAD_CAT_ID":38652,"ELEMENT_SET_NO":999,"REV_AT_EPOCH":4340,"BSTAR":0,"MEAN_MOTION_DOT":2.2e-7,"MEAN_MOTION_DDOT":0},{"OBJECT_NAME":"GSAT-10 (GAGAN/PRN 128)","OBJECT_ID":"2012-051B","EPOCH":"2026-03-04T18:04:38.818848","MEAN_MOTION":1.0027345,"ECCENTRICITY":0.00043,"INCLINATION":0.0728,"RA_OF_ASC_NODE":263.2748,"ARG_OF_PERICENTER":176.0991,"MEAN_ANOMALY":77.2485,"EPHEMERIS_TYPE":0,"CLASSIFICATION_TYPE":"U","NORAD_CAT_ID":38779,"ELEMENT_SET_NO":999,"REV_AT_EPOCH":4905,"BSTAR":0,"MEAN_MOTION_DOT":-1.75e-6,"MEAN_MOTION_DDOT":0},{"OBJECT_NAME":"LUCH 5B (SDCM/PRN 125)","OBJECT_ID":"2012-061A","EPOCH":"2026-03-03T21:39:13.674240","MEAN_MOTION":1.00271596,"ECCENTRICITY":0.00043919,"INCLINATION":10.2575,"RA_OF_ASC_NODE":50.9099,"ARG_OF_PERICENTER":223.3648,"MEAN_ANOMALY":195.8772,"EPHEMERIS_TYPE":0,"CLASSIFICATION_TYPE":"U","NORAD_CAT_ID":38977,"ELEMENT_SET_NO":999,"REV_AT_EPOCH":4855,"BSTAR":0,"MEAN_MOTION_DOT":-1.46e-6,"MEAN_MOTION_DDOT":0},{"OBJECT_NAME":"ASTRA 5B (EGNOS/PRN 123)","OBJECT_ID":"2014-011B","EPOCH":"2026-03-04T20:18:45.542016","MEAN_MOTION":1.00271213,"ECCENTRICITY":0.0004118,"INCLINATION":0.0901,"RA_OF_ASC_NODE":299.2577,"ARG_OF_PERICENTER":27.2241,"MEAN_ANOMALY":164.2665,"EPHEMERIS_TYPE":0,"CLASSIFICATION_TYPE":"U","NORAD_CAT_ID":39617,"ELEMENT_SET_NO":999,"REV_AT_EPOCH":4362,"BSTAR":0,"MEAN_MOTION_DOT":1.27e-6,"MEAN_MOTION_DDOT":0},{"OBJECT_NAME":"LUCH 5V (SDCM/PRN 141)","OBJECT_ID":"2014-023A","EPOCH":"2026-03-04T16:00:49.328640","MEAN_MOTION":1.00271709,"ECCENTRICITY":0.0003028,"INCLINATION":4.8756,"RA_OF_ASC_NODE":70.7724,"ARG_OF_PERICENTER":279.5145,"MEAN_ANOMALY":147.0614,"EPHEMERIS_TYPE":0,"CLASSIFICATION_TYPE":"U","NORAD_CAT_ID":39727,"ELEMENT_SET_NO":999,"REV_AT_EPOCH":4331,"BSTAR":0,"MEAN_MOTION_DOT":-2.77e-6,"MEAN_MOTION_DDOT":0},{"OBJECT_NAME":"GSAT-15 (GAGAN/PRN 139)","OBJECT_ID":"2015-065A","EPOCH":"2026-03-04T20:00:38.649024","MEAN_MOTION":1.00270872,"ECCENTRICITY":9.53e-5,"INCLINATION":0.0886,"RA_OF_ASC_NODE":269.958,"ARG_OF_PERICENTER":96.3755,"MEAN_ANOMALY":189.8745,"EPHEMERIS_TYPE":0,"CLASSIFICATION_TYPE":"U","NORAD_CAT_ID":41028,"ELEMENT_SET_NO":999,"REV_AT_EPOCH":3775,"BSTAR":0,"MEAN_MOTION_DOT":-2.67e-6,"MEAN_MOTION_DDOT":0},{"OBJECT_NAME":"EUTELSAT 117 WEST B (WAAS/PRN 131)","OBJECT_ID":"2016-038B","EPOCH":"2026-03-04T08:41:38.793120","MEAN_MOTION":1.00271881,"ECCENTRICITY":2.105e-5,"INCLINATION":0.0384,"RA_OF_ASC_NODE":342.0206,"ARG_OF_PERICENTER":243.213,"MEAN_ANOMALY":310.292,"EPHEMERIS_TYPE":0,"CLASSIFICATION_TYPE":"U","NORAD_CAT_ID":41589,"ELEMENT_SET_NO":999,"REV_AT_EPOCH":3561,"BSTAR":0,"MEAN_MOTION_DOT":-2.3e-7,"MEAN_MOTION_DDOT":0},{"OBJECT_NAME":"SES-15 (WAAS/PRN 133)","OBJECT_ID":"2017-026A","EPOCH":"2026-03-04T11:51:38.736576","MEAN_MOTION":1.00270841,"ECCENTRICITY":7.2e-5,"INCLINATION":0.0422,"RA_OF_ASC_NODE":304.7457,"ARG_OF_PERICENTER":40.1185,"MEAN_ANOMALY":226.109,"EPHEMERIS_TYPE":0,"CLASSIFICATION_TYPE":"U","NORAD_CAT_ID":42709,"ELEMENT_SET_NO":999,"REV_AT_EPOCH":638,"BSTAR":0,"MEAN_MOTION_DOT":4.9e-7,"MEAN_MOTION_DDOT":0},{"OBJECT_NAME":"QZS-2 (QZSS/PRN 194)","OBJECT_ID":"2017-028A","EPOCH":"2026-03-04T12:29:07.175616","MEAN_MOTION":1.00261975,"ECCENTRICITY":0.07456556,"INCLINATION":39.5902,"RA_OF_ASC_NODE":244.6778,"ARG_OF_PERICENTER":270.3311,"MEAN_ANOMALY":336.1474,"EPHEMERIS_TYPE":0,"CLASSIFICATION_TYPE":"U","NORAD_CAT_ID":42738,"ELEMENT_SET_NO":999,"REV_AT_EPOCH":657,"BSTAR":0,"MEAN_MOTION_DOT":-1.76e-6,"MEAN_MOTION_DDOT":0},{"OBJECT_NAME":"QZS-3 (QZSS/PRN 199)","OBJECT_ID":"2017-048A","EPOCH":"2026-03-04T18:40:22.371744","MEAN_MOTION":1.00275931,"ECCENTRICITY":0.0002269,"INCLINATION":0.0714,"RA_OF_ASC_NODE":216.2391,"ARG_OF_PERICENTER":139.753,"MEAN_ANOMALY":213.5999,"EPHEMERIS_TYPE":0,"CLASSIFICATION_TYPE":"U","NORAD_CAT_ID":42917,"ELEMENT_SET_NO":999,"REV_AT_EPOCH":3121,"BSTAR":0,"MEAN_MOTION_DOT":-3.58e-6,"MEAN_MOTION_DDOT":0},{"OBJECT_NAME":"QZS-4 (QZSS/PRN 195)","OBJECT_ID":"2017-062A","EPOCH":"2026-03-04T11:59:33.378432","MEAN_MOTION":1.00280862,"ECCENTRICITY":0.07486483,"INCLINATION":40.1729,"RA_OF_ASC_NODE":344.8221,"ARG_OF_PERICENTER":269.8938,"MEAN_ANOMALY":227.8704,"EPHEMERIS_TYPE":0,"CLASSIFICATION_TYPE":"U","NORAD_CAT_ID":42965,"ELEMENT_SET_NO":999,"REV_AT_EPOCH":3075,"BSTAR":0,"MEAN_MOTION_DOT":-3.43e-6,"MEAN_MOTION_DDOT":0},{"OBJECT_NAME":"BEIDOU-3 G1 (PRN 130)","OBJECT_ID":"2018-085A","EPOCH":"2026-03-04T18:49:51.779712","MEAN_MOTION":1.0026848,"ECCENTRICITY":0.0001365,"INCLINATION":2.8116,"RA_OF_ASC_NODE":100.376,"ARG_OF_PERICENTER":23.2646,"MEAN_ANOMALY":101.3833,"EPHEMERIS_TYPE":0,"CLASSIFICATION_TYPE":"U","NORAD_CAT_ID":43683,"ELEMENT_SET_NO":999,"REV_AT_EPOCH":2701,"BSTAR":0,"MEAN_MOTION_DOT":-2.88e-6,"MEAN_MOTION_DDOT":0},{"OBJECT_NAME":"EUTELSAT 5 WEST B (EGNOS/PRN 121)","OBJECT_ID":"2019-067A","EPOCH":"2026-03-04T07:42:38.710368","MEAN_MOTION":1.00272617,"ECCENTRICITY":0.00031974,"INCLINATION":0.0952,"RA_OF_ASC_NODE":310.151,"ARG_OF_PERICENTER":41.8937,"MEAN_ANOMALY":280.6517,"EPHEMERIS_TYPE":0,"CLASSIFICATION_TYPE":"U","NORAD_CAT_ID":44624,"ELEMENT_SET_NO":999,"REV_AT_EPOCH":2338,"BSTAR":0,"MEAN_MOTION_DOT":-5.4e-7,"MEAN_MOTION_DDOT":0},{"OBJECT_NAME":"BEIDOU-3 G2 (PRN 144)","OBJECT_ID":"2020-017A","EPOCH":"2026-03-04T16:54:04.130208","MEAN_MOTION":1.0027127,"ECCENTRICITY":0.0002775,"INCLINATION":2.655,"RA_OF_ASC_NODE":45.5884,"ARG_OF_PERICENTER":305.0365,"MEAN_ANOMALY":145.3662,"EPHEMERIS_TYPE":0,"CLASSIFICATION_TYPE":"U","NORAD_CAT_ID":45344,"ELEMENT_SET_NO":999,"REV_AT_EPOCH":2221,"BSTAR":0,"MEAN_MOTION_DOT":-1.49e-6,"MEAN_MOTION_DDOT":0}]
